[{"spaceTrack":{"CCSDS_OMM_VERS":"2.0","COMMENT":"GENERATED VIA SPACE-TRACK.ORG API","CREATION_DATE":"2021-05-12T07:56:10","ORIGINATOR":"18 SPCS","OBJECT_NAME":"STARLINK-1310","OBJECT_ID":"2020-019U","CENTER_NAME":"EARTH","REF_FRAME":"TEME","TIME_SYSTEM":"UTC","MEAN_ELEMENT_THEORY":"SGP4","EPOCH":"2021-05-12T05:42:49.624704","MEAN_MOTION":15.06381568,"ECCENTRICITY":0.0001049,"INCLINATION":53.056,"RA_OF_ASC_NODE":158.5747,"ARG_OF_PERICENTER":214.6448,"MEAN_ANOMALY":145.4473,"EPHEMERIS_TYPE":0,"CLASSIFICATION_TYPE":"U","NORAD_CAT_ID":45378,"ELEMENT_SET_NO":999,"REV_AT_EPOCH":6409,"BSTAR":0.00002054,"MEAN_MOTION_DOT":2.5e-7,"MEAN_MOTION_DDOT":0,"SEMIMAJOR_AXIS":6925.405,"PERIOD":95.593,"APOAPSIS":547.997,"PERIAPSIS":546.544,"OBJECT_TYPE":"PAYLOAD","RCS_SIZE":"LARGE","COUNTRY_CODE":"US","LAUNCH_DATE":"2020-03-18","SITE":"AFETR","DECAY_DATE":null,"DECAYED":0,"FILE":3035378,"GP_ID":177111325,"TLE_LINE0":"0 STARLINK-1310","TLE_LINE1":"1 45378U 20019U   21132.23807436  .00000025  00000-0  20540-4 0  9993","TLE_LINE2":"2 45378  53.0560 158.5747 0001049 214.6448 145.4473 15.06381568 64098"},"version":"v1.0","launch":"5eb87d43ffd86e000604b385","longitude":28.457703012546435,"latitude":26.69493428738377,"height_km":549.1907914719131,"velocity_kms":7.590573217366919,"id":"5eed7715096e590006985764"},{"spaceTrack":{"CCSDS_OMM_VERS":"2.0","COMMENT":"GENERATED VIA SPACE-TRACK.ORG API","CREATION_DATE":"2021-05-12T14:56:11","ORIGINATOR":"18 SPCS","OBJECT_NAME":"STARLINK-1290","OBJECT_ID":"2020-019AJ","CENTER_NAME":"EARTH","REF_FRAME":"TEME","TIME_SYSTEM":"UTC","MEAN_ELEMENT_THEORY":"SGP4","EPOCH":"2021-05-12T09:32:58.956576","MEAN_MOTION":15.06856155,"ECCENTRICITY":0.0000596,"INCLINATION":52.9935,"RA_OF_ASC_NODE":136.7312,"ARG_OF_PERICENTER":193.9952,"MEAN_ANOMALY":166.102,"EPHEMERIS_TYPE":0,"CLASSIFICATION_TYPE":"U","NORAD_CAT_ID":45392,"ELEMENT_SET_NO":999,"REV_AT_EPOCH":6411,"BSTAR":0.00005178,"MEAN_MOTION_DOT":0.00000499,"MEAN_MOTION_DDOT":0,"SEMIMAJOR_AXIS":6923.951,"PERIOD":95.563,"APOAPSIS":546.229,"PERIAPSIS":545.403,"OBJECT_TYPE":"PAYLOAD","RCS_SIZE":"LARGE","COUNTRY_CODE":"US","LAUNCH_DATE":"2020-03-18","SITE":"AFETR","DECAY_DATE":null,"DECAYED":0,"FILE":3035610,"GP_ID":177116127,"TLE_LINE0":"0 STARLINK-1290","TLE_LINE1":"1 45392U 20019AJ  21132.39790459  .00000499  00000-0  51780-4 0  9997","TLE_LINE2":"2 45392  52.9935 136.7312 0000596 193.9952 166.1020 15.06856155 64119"},"version":"v1.0","launch":"5eb87d43ffd86e000604b385","longitude":-139.19275436109228,"latitude":-47.73485895985067,"height_km":561.8782676073097,"velocity_kms":7.580355746211823,"id":"5eed7715096e590006985765"},{"spaceTrack":{"CCSDS_OMM_VERS":"2.0","COMMENT":"GENERATED VIA SPACE-TRACK.ORG API","CREATION_DATE":"2021-05-12T07:36:10","ORIGINATOR":"18 SPCS","OBJECT_NAME":"STARLINK-1398","OBJECT_ID":"2020-035AU","CENTER_NAME":"EARTH","REF_FRAME":"TEME","TIME_SYSTEM":"UTC","MEAN_ELEMENT_THEORY":"SGP4","EPOCH":"2021-05-12T03:26:08.471040","MEAN_MOTION":15.06398386,"ECCENTRICITY":0.0001733,"INCLINATION":53.0592,"RA_OF_ASC_NODE":28.9879,"ARG_OF_PERICENTER":73.2229,"MEAN_ANOMALY":286.895,"EPHEMERIS_TYPE":0,"CLASSIFICATION_TYPE":"U","NORAD_CAT_ID":45699,"ELEMENT_SET_NO":999,"REV_AT_EPOCH":5313,"BSTAR":0.00008539,"MEAN_MOTION_DOT":0.0000099,"MEAN_MOTION_DDOT":0,"SEMIMAJOR_AXIS":6925.354,"PERIOD":95.592,"APOAPSIS":548.419,"PERIAPSIS":546.018,"OBJECT_TYPE":"PAYLOAD","RCS_SIZE":"LARGE","COUNTRY_CODE":"US","LAUNCH_DATE":"2020-06-04","SITE":"AFETR","DECAY_DATE":null,"DECAYED":0,"FILE":3035297,"GP_ID":177109646,"TLE_LINE0":"0 STARLINK-1398","TLE_LINE1":"1 45699U 20035AU  21132.14315360  .00000990  00000-0  85390-4 0  9992","TLE_LINE2":"2 45699  53.0592  28.9879 0001733  73.2229 286.8950 15.06398386 53130"},"version":"v1.0","launch":"5eb87d45ffd86e000604b387","longitude":61.95769515295637,"latitude":-7.434377373584239,"height_km":549.8404194734103,"velocity_kms":7.587435216948844,"id":"5eed7715096e590006985766"},{"spaceTrack":{"CCSDS_OMM_VERS":"2.0","COMMENT":"GENERATED VIA SPACE-TRACK.ORG API","CREATION_DATE":"2021-05-12T07:46:11","ORIGINATOR":"18 SPCS","OBJECT_NAME":"STARLINK-1289","OBJECT_ID":"2020-019AH","CENTER_NAME":"EARTH","REF_FRAME":"TEME","TIME_SYSTEM":"UTC","MEAN_ELEMENT_THEORY":"SGP4","EPOCH":"2021-05-12T04:41:47.494176","MEAN_MOTION":15.06384819,"ECCENTRICITY":0.0001217,"INCLINATION":53.0556,"RA_OF_ASC_NODE":138.7589,"ARG_OF_PERICENTER":79.3758,"MEAN_ANOMALY":280.7368,"EPHEMERIS_TYPE":0,"CLASSIFICATION_TYPE":"U","NORAD_CAT_ID":45391,"ELEMENT_SET_NO":999,"REV_AT_EPOCH":6408,"BSTAR":0.000030002,"MEAN_MOTION_DOT":0.00000165,"MEAN_MOTION_DDOT":0,"SEMIMAJOR_AXIS":6925.395,"PERIOD":95.593,"APOAPSIS":548.103,"PERIAPSIS":546.417,"OBJECT_TYPE":"PAYLOAD","RCS_SIZE":"LARGE","COUNTRY_CODE":"US","LAUNCH_DATE":"2020-03-18","SITE":"AFETR","DECAY_DATE":null,"DECAYED":0,"FILE":3035319,"GP_ID":177110414,"TLE_LINE0":"0 STARLINK-1289","TLE_LINE1":"1 45391U 20019AH  21132.19568859  .00000165  00000-0  30002-4 0  9995","TLE_LINE2":"2 45391  53.0556 138.7589 0001217  79.3758 280.7368 15.06384819 64086"},"version":"v1.0","launch":"5eb87d43ffd86e000604b385","longitude":-113.44733125502766,"latitude":-52.80052800001262,"height_km":566.4294584281188,"velocity_kms":7.577292321819606,"id":"5eed7715096e590006985767"},{"spaceTrack":{"CCSDS_OMM_VERS":"2.0","COMMENT":"GENERATED VIA SPACE-TRACK.ORG API","CREATION_DATE":"2021-05-12T07:56:10","ORIGINATOR":"18 SPCS","OBJECT_NAME":"STARLINK-1260","OBJECT_ID":"2020-019AW","CENTER_NAME":"EARTH","REF_FRAME":"TEME","TIME_SYSTEM":"UTC","MEAN_ELEMENT_THEORY":"SGP4","EPOCH":"2021-05-12T06:39:54.058464","MEAN_MOTION":15.06395588,"ECCENTRICITY":0.0000502,"INCLINATION":53.0566,"RA_OF_ASC_NODE":128.3914,"ARG_OF_PERICENTER":48.8481,"MEAN_ANOMALY":311.2551,"EPHEMERIS_TYPE":0,"CLASSIFICATION_TYPE":"U","NORAD_CAT_ID":45404,"ELEMENT_SET_NO":999,"REV_AT_EPOCH":6422,"BSTAR":0.000036652,"MEAN_MOTION_DOT":0.00000265,"MEAN_MOTION_DDOT":0,"SEMIMAJOR_AXIS":6925.362,"PERIOD":95.592,"APOAPSIS":547.575,"PERIAPSIS":546.879,"OBJECT_TYPE":"PAYLOAD","RCS_SIZE":"LARGE","COUNTRY_CODE":"US","LAUNCH_DATE":"2020-03-18","SITE":"AFETR","DECAY_DATE":null,"DECAYED":0,"FILE":3035372,"GP_ID":177111249,"TLE_LINE0":"0 STARLINK-1260","TLE_LINE1":"1 45404U 20019AW  21132.27770901  .00000265  00000-0  36652-4 0  9990","TLE_LINE2":"2 45404  53.0566 128.3914 0000502  48.8481 311.2551 15.06395588 64224"},"version":"v1.0","launch":"5eb87d43ffd86e000604b385","longitude":155.86510891155132,"latitude":0.6644508881980702,"height_km":548.2350359158409,"velocity_kms":7.588986355362812,"id":"5eed7715096e590006985768"},{"spaceTrack":{"CCSDS_OMM_VERS":"2.0","COMMENT":"GENERATED VIA SPACE-TRACK.ORG API","CREATION_DATE":"2021-05-12T07:56:10","ORIGINATOR":"18 SPCS","OBJECT_NAME":"STARLINK-1312","OBJECT_ID":"2020-019AQ","CENTER_NAME":"EARTH","REF_FRAME":"TEME","TIME_SYSTEM":"UTC","MEAN_ELEMENT_THEORY":"SGP4","EPOCH":"2021-05-12T06:27:57.200256","MEAN_MOTION":15.0638951,"ECCENTRICITY":0.000061,"INCLINATION":53.0548,"RA_OF_ASC_NODE":138.4296,"ARG_OF_PERICENTER":53.8241,"MEAN_ANOMALY":306.2804,"EPHEMERIS_TYPE":0,"CLASSIFICATION_TYPE":"U","NORAD_CAT_ID":45398,"ELEMENT_SET_NO":999,"REV_AT_EPOCH":6412,"BSTAR":0.000023794,"MEAN_MOTION_DOT":7.3e-7,"MEAN_MOTION_DDOT":0,"SEMIMAJOR_AXIS":6925.381,"PERIOD":95.593,"APOAPSIS":547.668,"PERIAPSIS":546.823,"OBJECT_TYPE":"PAYLOAD","RCS_SIZE":"LARGE","COUNTRY_CODE":"US","LAUNCH_DATE":"2020-03-18","SITE":"AFETR","DECAY_DATE":null,"DECAYED":0,"FILE":3035378,"GP_ID":177111603,"TLE_LINE0":"0 STARLINK-1312","TLE_LINE1":"1 45398U 20019AQ  21132.26941204  .00000073  00000-0  23794-4 0  9997","TLE_LINE2":"2 45398  53.0548 138.4296 0000610  53.8241 306.2804 15.06389510 64123"},"version":"v1.0","launch":"5eb87d43ffd86e000604b385","longitude":-163.32052562180343,"latitude":-34.01742974560257,"height_km":558.3623718133822,"velocity_kms":7.581949997257278,"id":"5eed7715096e590006985769"},{"spaceTrack":{"CCSDS_OMM_VERS":"2.0","COMMENT":"GENERATED VIA SPACE-TRACK.ORG API","CREATION_DATE":"2021-05-12T04:44:40","ORIGINATOR":"18 SPCS","OBJECT_NAME":"STARLINK-1273","OBJECT_ID":"2020-019H","CENTER_NAME":"EARTH","REF_FRAME":"TEME","TIME_SYSTEM":"UTC","MEAN_ELEMENT_THEORY":"SGP4","EPOCH":"2021-05-11T13:04:58.372320","MEAN_MOTION":15.06394798,"ECCENTRICITY":0.0000463,"INCLINATION":53.0556,"RA_OF_ASC_NODE":161.6855,"ARG_OF_PERICENTER":76.7937,"MEAN_ANOMALY":283.3104,"EPHEMERIS_TYPE":0,"CLASSIFICATION_TYPE":"U","NORAD_CAT_ID":45367,"ELEMENT_SET_NO":999,"REV_AT_EPOCH":6398,"BSTAR":0.000039422,"MEAN_MOTION_DOT":0.00000306,"MEAN_MOTION_DDOT":0,"SEMIMAJOR_AXIS":6925.365,"PERIOD":95.592,"APOAPSIS":547.55,"PERIAPSIS":546.909,"OBJECT_TYPE":"PAYLOAD","RCS_SIZE":"LARGE","COUNTRY_CODE":"US","LAUNCH_DATE":"2020-03-18","SITE":"AFETR","DECAY_DATE":null,"DECAYED":0,"FILE":3035157,"GP_ID":177103507,"TLE_LINE0":"0 STARLINK-1273","TLE_LINE1":"1 45367U 20019H   21131.54512005  .00000306  00000-0  39422-4 0  9990","TLE_LINE2":"2 45367  53.0556 161.6855 0000463  76.7937 283.3104 15.06394798 63984"},"version":"v1.0","launch":"5eb87d43ffd86e000604b385","longitude":-164.97371582962194,"latitude":-11.381574177150664,"height_km":550.396860843628,"velocity_kms":7.587118707777287,"id":"5eed7715096e59000698576a"}]